[{"OBJECT_NAME":"STARLINK-5516","OBJECT_ID":"2023-094AM","EPOCH":"2026-03-28T12:00:00.998784","MEAN_MOTION":15.25691469,"ECCENTRICITY":0.000214,"INCLINATION":42.9994,"RA_OF_ASC_NODE":273.2381,"ARG_OF_PERICENTER":254.478,"MEAN_ANOMALY":33.6533,"EPHEMERIS_TYPE":0,"CLASSIFICATION_TYPE":"U","NORAD_CAT_ID":57253,"ELEMENT_SET_NO":999,"REV_AT_EPOCH":566,"BSTAR":0.032532,"MEAN_MOTION_DOT":0.00912529,"MEAN_MOTION_DDOT":0},{"OBJECT_NAME":"STARLINK-5490","OBJECT_ID":"2023-094AN","EPOCH":"2026-03-28T12:00:00.998784","MEAN_MOTION":15.26471378,"ECCENTRICITY":0.000193,"INCLINATION":42.9989,"RA_OF_ASC_NODE":273.0126,"ARG_OF_PERICENTER":265.5402,"MEAN_ANOMALY":116.3125,"EPHEMERIS_TYPE":0,"CLASSIFICATION_TYPE":"U","NORAD_CAT_ID":57254,"ELEMENT_SET_NO":999,"REV_AT_EPOCH":571,"BSTAR":0.004753,"MEAN_MOTION_DOT":0.00128425,"MEAN_MOTION_DDOT":0},{"OBJECT_NAME":"STARLINK-5481","OBJECT_ID":"2023-094AP","EPOCH":"2026-03-28T12:00:00.998784","MEAN_MOTION":15.25764625,"ECCENTRICITY":0.0001829,"INCLINATION":42.9989,"RA_OF_ASC_NODE":273.031,"ARG_OF_PERICENTER":267.7246,"MEAN_ANOMALY":106.741,"EPHEMERIS_TYPE":0,"CLASSIFICATION_TYPE":"U","NORAD_CAT_ID":57255,"ELEMENT_SET_NO":999,"REV_AT_EPOCH":576,"BSTAR":0.032403,"MEAN_MOTION_DOT":0.00910773,"MEAN_MOTION_DDOT":0},{"OBJECT_NAME":"STARLINK-5512","OBJECT_ID":"2023-094AQ","EPOCH":"2026-03-28T12:00:00.998784","MEAN_MOTION":15.24063433,"ECCENTRICITY":0.0001017,"INCLINATION":42.9992,"RA_OF_ASC_NODE":273.628,"ARG_OF_PERICENTER":229.7254,"MEAN_ANOMALY":255.0652,"EPHEMERIS_TYPE":0,"CLASSIFICATION_TYPE":"U","NORAD_CAT_ID":57256,"ELEMENT_SET_NO":999,"REV_AT_EPOCH":576,"BSTAR":0.046141,"MEAN_MOTION_DOT":0.01248879,"MEAN_MOTION_DDOT":0},{"OBJECT_NAME":"STARLINK-5503","OBJECT_ID":"2023-094AR","EPOCH":"2026-03-28T12:00:00.998784","MEAN_MOTION":15.24338621,"ECCENTRICITY":0.000155,"INCLINATION":42.9991,"RA_OF_ASC_NODE":273.4309,"ARG_OF_PERICENTER":247.3773,"MEAN_ANOMALY":318.4467,"EPHEMERIS_TYPE":0,"CLASSIFICATION_TYPE":"U","NORAD_CAT_ID":57257,"ELEMENT_SET_NO":999,"REV_AT_EPOCH":576,"BSTAR":0.034863,"MEAN_MOTION_DOT":0.00941582,"MEAN_MOTION_DDOT":0},{"OBJECT_NAME":"STARLINK-5476","OBJECT_ID":"2023-094AS","EPOCH":"2026-03-28T12:00:00.998784","MEAN_MOTION":15.25045948,"ECCENTRICITY":0.0001857,"INCLINATION":42.9992,"RA_OF_ASC_NODE":273.1491,"ARG_OF_PERICENTER":266.0285,"MEAN_ANOMALY":56.5942,"EPHEMERIS_TYPE":0,"CLASSIFICATION_TYPE":"U","NORAD_CAT_ID":57258,"ELEMENT_SET_NO":999,"REV_AT_EPOCH":581,"BSTAR":0.033451,"MEAN_MOTION_DOT":0.00921033,"MEAN_MOTION_DDOT":0},{"OBJECT_NAME":"STARLINK-5026","OBJECT_ID":"2023-094AU","EPOCH":"2026-03-28T12:00:00.998784","MEAN_MOTION":15.23862251,"ECCENTRICITY":0.0001698,"INCLINATION":43.0041,"RA_OF_ASC_NODE":273.1717,"ARG_OF_PERICENTER":262.2868,"MEAN_ANOMALY":51.7987,"EPHEMERIS_TYPE":0,"CLASSIFICATION_TYPE":"U","NORAD_CAT_ID":57260,"ELEMENT_SET_NO":999,"REV_AT_EPOCH":581,"BSTAR":0.023028,"MEAN_MOTION_DOT":0.00607951,"MEAN_MOTION_DDOT":0},{"OBJECT_NAME":"STARLINK-5485","OBJECT_ID":"2023-094AV","EPOCH":"2026-03-28T13:12:41.840928","MEAN_MOTION":15.26742556,"ECCENTRICITY":0.0001565,"INCLINATION":43.0022,"RA_OF_ASC_NODE":283.89,"ARG_OF_PERICENTER":276.4427,"MEAN_ANOMALY":83.6246,"EPHEMERIS_TYPE":0,"CLASSIFICATION_TYPE":"U","NORAD_CAT_ID":57261,"ELEMENT_SET_NO":999,"REV_AT_EPOCH":15000,"BSTAR":9.8548e-5,"MEAN_MOTION_DOT":2.385e-5,"MEAN_MOTION_DDOT":0},{"OBJECT_NAME":"STARLINK-5504","OBJECT_ID":"2023-094AW","EPOCH":"2026-03-28T12:00:00.998784","MEAN_MOTION":15.25311978,"ECCENTRICITY":0.0001979,"INCLINATION":42.9994,"RA_OF_ASC_NODE":273.1625,"ARG_OF_PERICENTER":260.515,"MEAN_ANOMALY":57.1177,"EPHEMERIS_TYPE":0,"CLASSIFICATION_TYPE":"U","NORAD_CAT_ID":57262,"ELEMENT_SET_NO":999,"REV_AT_EPOCH":576,"BSTAR":0.033715,"MEAN_MOTION_DOT":0.00936985,"MEAN_MOTION_DDOT":0},{"OBJECT_NAME":"STARLINK-5509","OBJECT_ID":"2023-094AX","EPOCH":"2026-03-28T05:35:25.641024","MEAN_MOTION":15.26742827,"ECCENTRICITY":0.0001327,"INCLINATION":43.0012,"RA_OF_ASC_NODE":285.8041,"ARG_OF_PERICENTER":271.1762,"MEAN_ANOMALY":88.8937,"EPHEMERIS_TYPE":0,"CLASSIFICATION_TYPE":"U","NORAD_CAT_ID":57263,"ELEMENT_SET_NO":999,"REV_AT_EPOCH":14995,"BSTAR":3.2049e-5,"MEAN_MOTION_DOT":6.0e-6,"MEAN_MOTION_DDOT":0},{"OBJECT_NAME":"STARLINK-5858","OBJECT_ID":"2023-094AY","EPOCH":"2026-03-28T12:00:00.998784","MEAN_MOTION":15.2294811,"ECCENTRICITY":0.0001691,"INCLINATION":43.003,"RA_OF_ASC_NODE":273.2997,"ARG_OF_PERICENTER":264.8256,"MEAN_ANOMALY":354.7242,"EPHEMERIS_TYPE":0,"CLASSIFICATION_TYPE":"U","NORAD_CAT_ID":57264,"ELEMENT_SET_NO":999,"REV_AT_EPOCH":581,"BSTAR":0.023977,"MEAN_MOTION_DOT":0.00616756,"MEAN_MOTION_DDOT":0},{"OBJECT_NAME":"STARLINK-30198","OBJECT_ID":"2023-096A","EPOCH":"2026-03-28T12:00:00.019872","MEAN_MOTION":15.2019489,"ECCENTRICITY":0.0001332,"INCLINATION":42.9943,"RA_OF_ASC_NODE":117.8373,"ARG_OF_PERICENTER":288.0782,"MEAN_ANOMALY":71.9922,"EPHEMERIS_TYPE":0,"CLASSIFICATION_TYPE":"U","NORAD_CAT_ID":57290,"ELEMENT_SET_NO":999,"REV_AT_EPOCH":15048,"BSTAR":0.0003642,"MEAN_MOTION_DOT":7.806e-5,"MEAN_MOTION_DDOT":0},{"OBJECT_NAME":"STARLINK-30239","OBJECT_ID":"2023-096B","EPOCH":"2026-03-27T10:38:57.312960","MEAN_MOTION":15.27565919,"ECCENTRICITY":0.0001369,"INCLINATION":43.0011,"RA_OF_ASC_NODE":122.8259,"ARG_OF_PERICENTER":258.4782,"MEAN_ANOMALY":101.5916,"EPHEMERIS_TYPE":0,"CLASSIFICATION_TYPE":"U","NORAD_CAT_ID":57291,"ELEMENT_SET_NO":999,"REV_AT_EPOCH":15033,"BSTAR":-0.00016274,"MEAN_MOTION_DOT":-4.736e-5,"MEAN_MOTION_DDOT":0},{"OBJECT_NAME":"STARLINK-30235","OBJECT_ID":"2023-096E","EPOCH":"2026-03-28T08:42:31.424544","MEAN_MOTION":15.26745503,"ECCENTRICITY":0.0001011,"INCLINATION":43.0031,"RA_OF_ASC_NODE":117.6856,"ARG_OF_PERICENTER":268.4966,"MEAN_ANOMALY":91.577,"EPHEMERIS_TYPE":0,"CLASSIFICATION_TYPE":"U","NORAD_CAT_ID":57294,"ELEMENT_SET_NO":999,"REV_AT_EPOCH":15047,"BSTAR":-0.00010677,"MEAN_MOTION_DOT":-3.123e-5,"MEAN_MOTION_DDOT":0},{"OBJECT_NAME":"STARLINK-30236","OBJECT_ID":"2023-096L","EPOCH":"2026-03-28T12:00:17.356032","MEAN_MOTION":15.27487415,"ECCENTRICITY":8.76e-5,"INCLINATION":43.0021,"RA_OF_ASC_NODE":116.983,"ARG_OF_PERICENTER":290.1163,"MEAN_ANOMALY":69.9594,"EPHEMERIS_TYPE":0,"CLASSIFICATION_TYPE":"U","NORAD_CAT_ID":57300,"ELEMENT_SET_NO":999,"REV_AT_EPOCH":15053,"BSTAR":0.0010154,"MEAN_MOTION_DOT":0.00027705,"MEAN_MOTION_DDOT":0},{"OBJECT_NAME":"STARLINK-30201","OBJECT_ID":"2023-096M","EPOCH":"2026-03-28T08:52:46.931232","MEAN_MOTION":15.2674528,"ECCENTRICITY":0.0001084,"INCLINATION":43.0006,"RA_OF_ASC_NODE":117.7292,"ARG_OF_PERICENTER":272.5481,"MEAN_ANOMALY":87.5246,"EPHEMERIS_TYPE":0,"CLASSIFICATION_TYPE":"U","NORAD_CAT_ID":57301,"ELEMENT_SET_NO":999,"REV_AT_EPOCH":14957,"BSTAR":8.6009e-5,"MEAN_MOTION_DOT":2.048e-5,"MEAN_MOTION_DDOT":0},{"OBJECT_NAME":"STARLINK-30233","OBJECT_ID":"2023-096N","EPOCH":"2026-03-28T02:35:19.426272","MEAN_MOTION":15.26748474,"ECCENTRICITY":0.00014431,"INCLINATION":42.9998,"RA_OF_ASC_NODE":119.1848,"ARG_OF_PERICENTER":283.7936,"MEAN_ANOMALY":76.2755,"EPHEMERIS_TYPE":0,"CLASSIFICATION_TYPE":"U","NORAD_CAT_ID":57302,"ELEMENT_SET_NO":999,"REV_AT_EPOCH":14953,"BSTAR":0.00016895897,"MEAN_MOTION_DOT":4.276e-5,"MEAN_MOTION_DDOT":0},{"OBJECT_NAME":"STARLINK-30184","OBJECT_ID":"2023-096W","EPOCH":"2026-03-28T11:23:05.543808","MEAN_MOTION":15.27587318,"ECCENTRICITY":0.0001289,"INCLINATION":43.0019,"RA_OF_ASC_NODE":88.3774,"ARG_OF_PERICENTER":271.1133,"MEAN_ANOMALY":88.9571,"EPHEMERIS_TYPE":0,"CLASSIFICATION_TYPE":"U","NORAD_CAT_ID":57310,"ELEMENT_SET_NO":999,"REV_AT_EPOCH":14992,"BSTAR":2.3812e-5,"MEAN_MOTION_DOT":3.93e-6,"MEAN_MOTION_DDOT":0},{"OBJECT_NAME":"STARLINK-6290","OBJECT_ID":"2023-099A","EPOCH":"2026-03-28T12:00:00.998784","MEAN_MOTION":15.2284498,"ECCENTRICITY":0.0001242,"INCLINATION":43.0003,"RA_OF_ASC_NODE":145.7347,"ARG_OF_PERICENTER":318.4236,"MEAN_ANOMALY":211.1991,"EPHEMERIS_TYPE":0,"CLASSIFICATION_TYPE":"U","NORAD_CAT_ID":57328,"ELEMENT_SET_NO":999,"REV_AT_EPOCH":581,"BSTAR":0.0034445,"MEAN_MOTION_DOT":0.00082893,"MEAN_MOTION_DDOT":0},{"OBJECT_NAME":"STARLINK-6138","OBJECT_ID":"2023-099B","EPOCH":"2026-03-28T12:00:00.998784","MEAN_MOTION":15.21415476,"ECCENTRICITY":0.0001219,"INCLINATION":43.0001,"RA_OF_ASC_NODE":145.7236,"ARG_OF_PERICENTER":310.1865,"MEAN_ANOMALY":220.9405,"EPHEMERIS_TYPE":0,"CLASSIFICATION_TYPE":"U","NORAD_CAT_ID":57329,"ELEMENT_SET_NO":999,"REV_AT_EPOCH":576,"BSTAR":0.003943,"MEAN_MOTION_DOT":0.00091101,"MEAN_MOTION_DDOT":0},{"OBJECT_NAME":"STARLINK-6212","OBJECT_ID":"2023-099C","EPOCH":"2026-03-28T12:00:00.998784","MEAN_MOTION":15.21455009,"ECCENTRICITY":0.0001547,"INCLINATION":43,"RA_OF_ASC_NODE":145.8439,"ARG_OF_PERICENTER":319.5186,"MEAN_ANOMALY":162.8663,"EPHEMERIS_TYPE":0,"CLASSIFICATION_TYPE":"U","NORAD_CAT_ID":57330,"ELEMENT_SET_NO":999,"REV_AT_EPOCH":581,"BSTAR":0.0039282,"MEAN_MOTION_DOT":0.00090862,"MEAN_MOTION_DDOT":0},{"OBJECT_NAME":"STARLINK-6234","OBJECT_ID":"2023-099D","EPOCH":"2026-03-28T12:00:00.998784","MEAN_MOTION":15.21171542,"ECCENTRICITY":9.4e-5,"INCLINATION":43.0009,"RA_OF_ASC_NODE":145.7767,"ARG_OF_PERICENTER":312.2328,"MEAN_ANOMALY":200.3609,"EPHEMERIS_TYPE":0,"CLASSIFICATION_TYPE":"U","NORAD_CAT_ID":57331,"ELEMENT_SET_NO":999,"REV_AT_EPOCH":581,"BSTAR":0.0042077,"MEAN_MOTION_DOT":0.00096613,"MEAN_MOTION_DDOT":0},{"OBJECT_NAME":"STARLINK-5831","OBJECT_ID":"2023-099E","EPOCH":"2026-03-28T12:00:00.998784","MEAN_MOTION":15.21342889,"ECCENTRICITY":0.0001505,"INCLINATION":43.0024,"RA_OF_ASC_NODE":145.8172,"ARG_OF_PERICENTER":280.4464,"MEAN_ANOMALY":215.3259,"EPHEMERIS_TYPE":0,"CLASSIFICATION_TYPE":"U","NORAD_CAT_ID":57332,"ELEMENT_SET_NO":999,"REV_AT_EPOCH":581,"BSTAR":0.027736,"MEAN_MOTION_DOT":0.0067727,"MEAN_MOTION_DDOT":0}]
